{
  "norad_id": 60095,
  "name": "STARLINK-32028",
  "history": [
    {
      "epoch": "2026-05-02T08:41:15.326880Z",
      "apogee_km": 475.98045404459117,
      "perigee_km": 474.49601296901346,
      "latitude_deg": 3.603476492299197e-05,
      "longitude_deg": 157.24564995215044,
      "height_km": 475.9966080221205,
      "semi_major_axis_km": 6853.375233506802,
      "eccentricity": 0.0001083,
      "inclination_deg": 53.1596,
      "raan_deg": 147.8406,
      "arg_perigee_deg": 79.1329,
      "mean_anomaly_deg": 280.9794,
      "mean_motion_rev_day": 15.30192242
    },
    {
      "epoch": "2026-05-03T06:37:59.741760Z",
      "apogee_km": 475.98960931209876,
      "perigee_km": 474.45514214787363,
      "latitude_deg": -1.841095159193456e-05,
      "longitude_deg": -177.0879315419298,
      "height_km": 475.963065445163,
      "semi_major_axis_km": 6853.359375729986,
      "eccentricity": 0.00011195,
      "inclination_deg": 53.1602,
      "raan_deg": 143.5934,
      "arg_perigee_deg": 78.1426,
      "mean_anomaly_deg": 281.97,
      "mean_motion_rev_day": 15.30197553
    },
    {
      "epoch": "2026-05-04T07:42:51.865632Z",
      "apogee_km": 476.02032334881915,
      "perigee_km": 474.5172343933982,
      "latitude_deg": 3.599208439615233e-05,
      "longitude_deg": 160.81057682173804,
      "height_km": 475.9620427551537,
      "semi_major_axis_km": 6853.405778871109,
      "eccentricity": 0.00010966,
      "inclination_deg": 53.1603,
      "raan_deg": 138.7391,
      "arg_perigee_deg": 74.1607,
      "mean_anomaly_deg": 285.9515,
      "mean_motion_rev_day": 15.30182012
    },
    {
      "epoch": "2026-05-05T07:13:38.906400Z",
      "apogee_km": 476.0170743483077,
      "perigee_km": 474.4147604362206,
      "latitude_deg": -1.617553404083246e-05,
      "longitude_deg": 162.59708382431566,
      "height_km": 475.8886341883994,
      "semi_major_axis_km": 6853.352917392263,
      "eccentricity": 0.0001169,
      "inclination_deg": 53.1601,
      "raan_deg": 134.1873,
      "arg_perigee_deg": 73.6464,
      "mean_anomaly_deg": 286.4665,
      "mean_motion_rev_day": 15.30199716
    },
    {
      "epoch": "2026-05-06T06:44:27.531744Z",
      "apogee_km": 476.15171555999405,
      "perigee_km": 474.3917601961066,
      "latitude_deg": -3.625153895682814e-05,
      "longitude_deg": 164.3789940810381,
      "height_km": 475.9829666603058,
      "semi_major_axis_km": 6853.4087378780505,
      "eccentricity": 0.0001284,
      "inclination_deg": 53.1608,
      "raan_deg": 129.6375,
      "arg_perigee_deg": 77.7338,
      "mean_anomaly_deg": 282.3806,
      "mean_motion_rev_day": 15.30181021
    },
    {
      "epoch": "2026-05-07T17:13:37.229664Z",
      "apogee_km": 476.1084001278741,
      "perigee_km": 474.33200994032995,
      "latitude_deg": 8.26821696969951e-06,
      "longitude_deg": -1.0010767867595567,
      "height_km": 476.0592542976794,
      "semi_major_axis_km": 6853.357205034102,
      "eccentricity": 0.0001296,
      "inclination_deg": 53.1609,
      "raan_deg": 122.9641,
      "arg_perigee_deg": 86.1854,
      "mean_anomaly_deg": 273.9295,
      "mean_motion_rev_day": 15.3019828
    },
    {
      "epoch": "2026-05-08T16:44:25.215648Z",
      "apogee_km": 476.1468239029773,
      "perigee_km": 474.3484957682367,
      "latitude_deg": 2.4550341351569184e-06,
      "longitude_deg": 0.7826162138959565,
      "height_km": 476.11403931597823,
      "semi_major_axis_km": 6853.384659835607,
      "eccentricity": 0.0001312,
      "inclination_deg": 53.1609,
      "raan_deg": 118.4134,
      "arg_perigee_deg": 87.9776,
      "mean_anomaly_deg": 272.1375,
      "mean_motion_rev_day": 15.30189085
    },
    {
      "epoch": "2026-05-09T16:15:13.277664Z",
      "apogee_km": 476.1177201391283,
      "perigee_km": 474.36325550224683,
      "latitude_deg": 4.7822723541741505e-05,
      "longitude_deg": 2.5660304336581934,
      "height_km": 476.1367982340882,
      "semi_major_axis_km": 6853.377487820688,
      "eccentricity": 0.000128,
      "inclination_deg": 53.161,
      "raan_deg": 113.8627,
      "arg_perigee_deg": 89.8793,
      "mean_anomaly_deg": 270.2355,
      "mean_motion_rev_day": 15.30191487
    }
  ]
}